[{"OBJECT_NAME":"OBJECT S","OBJECT_ID":"2024-199S","EPOCH":"2026-03-09T22:22:49.887840","MEAN_MOTION":15.3495177,"ECCENTRICITY":0.00086914,"INCLINATION":97.3152,"RA_OF_ASC_NODE":299.1504,"ARG_OF_PERICENTER":310.0662,"MEAN_ANOMALY":49.9819,"EPHEMERIS_TYPE":0,"CLASSIFICATION_TYPE":"U","NORAD_CAT_ID":61751,"ELEMENT_SET_NO":999,"REV_AT_EPOCH":12190,"BSTAR":0.00036395153,"MEAN_MOTION_DOT":0.00012279,"MEAN_MOTION_DDOT":0},{"OBJECT_NAME":"STARLINK-36369","OBJECT_ID":"2026-026C","EPOCH":"2026-03-09T22:00:01.999584","MEAN_MOTION":15.48557021,"ECCENTRICITY":0.00018859,"INCLINATION":97.2847,"RA_OF_ASC_NODE":123.4317,"ARG_OF_PERICENTER":70.9847,"MEAN_ANOMALY":342.6499,"EPHEMERIS_TYPE":0,"CLASSIFICATION_TYPE":"U","NORAD_CAT_ID":67723,"ELEMENT_SET_NO":999,"REV_AT_EPOCH":535,"BSTAR":-0.041406424,"MEAN_MOTION_DOT":-0.01972119,"MEAN_MOTION_DDOT":0}]
